PROTOSTAR 2             
1 34941U 09027A   09160.89253365 -.00000336  00000-0  10000-3 0   264
2 34941   0.0368 196.6870 0000504 105.0233  25.3816  1.00271459   295
BREEZE-M R/B            
1 34942U 09027B   09161.52661416 -.00000093  00000-0  00000+0 0   193
2 34942   8.3019 254.9066 3473454   3.4508 358.5124  1.57275864   392
BREEZE-M DEB [TANK]     
1 34943U 09027C   09162.24082879 -.00000026  00000-0  00000+0 0   235
2 34943  49.1318 247.6917 6744191   6.1296 359.1798  2.91746776   767
TACSAT 3                
1 35001U 09028A   09161.78633213  .00002210  00000-0  61781-4 0   238
2 35001  40.4563 278.9313 0023369 114.0487 246.2776 15.38815498  3362
PHARMASAT               
1 35002U 09028B   09161.51587364  .00002258  00000-0  61351-4 0   230
2 35002  40.4691 280.4099 0026393 115.6195 244.7361 15.39588577  3311
HAWKSAT 1               
1 35003U 09028C   09161.70667925  .00001712  00000-0  47565-4 0   240
2 35003  40.4716 279.2255 0027132 120.6423 239.6979 15.39851173  3359
POLYSAT CP6             
1 35004U 09028D   09161.51045929  .00004275  00000-0  10912-3 0   189
2 35004  40.4625 280.3549 0026877 119.4122 240.9355 15.40015811  3317
AEROCUBE 3              
1 35005U 09028E   09161.51315003  .00004502  00000-0  11533-3 0   186
2 35005  40.4758 280.4052 0026456 117.1393 243.2121 15.39829169  3317
MINOTAUR R/B            
1 35006U 09028F   09161.77153614  .00001800  00000-0  49700-4 0   145
2 35006  40.4714 278.8333 0027063 119.2189 241.1336 15.39851675  3350
MERIDIAN 2              
1 35008U 09029A   09161.25215575  .00000484  00000-0  16069-3 0   290
2 35008  62.8432 154.5614 7303378 290.3293   9.3324  2.22894824   448
FREGAT R/B              
1 35009U 09029B   09162.03309691  .00003943 -34885-6  22913-3 0   261
2 35009  62.8556 154.3170 7335434 289.9780   9.2413  2.24268619   452
SOYUZ-TMA 15            
1 35010U 09030A   09160.50405715  .00017388  00000-0  12572-3 0   240
2 35010  51.6404 346.3313 0009220  94.2598   9.8575 15.73554368  2063
